CCSDS_OMM_VERS = 2.0
CREATION_DATE  = 
ORIGINATOR     = 

OBJECT_NAME    = SL-14 R/B
OBJECT_ID      = 1986-046B
CENTER_NAME    = EARTH
REF_FRAME      = TEME
TIME_SYSTEM    = UTC
MEAN_ELEMENT_THEORY = SGP/SGP4

EPOCH          = 2026-03-23T09:54:42.825024
MEAN_MOTION    = 14.85603021
ECCENTRICITY   = .0023068
INCLINATION    = 82.4794
RA_OF_ASC_NODE = 67.2109
ARG_OF_PERICENTER = 178.7376
MEAN_ANOMALY   = 181.3903

EPHEMERIS_TYPE = 0
CLASSIFICATION_TYPE = U
NORAD_CAT_ID   = 16792
ELEMENT_SET_NO = 999
REV_AT_EPOCH   = 12844
BSTAR          = .533E-4
MEAN_MOTION_DOT = .488E-5
MEAN_MOTION_DDOT = 0

CCSDS_OMM_VERS = 2.0
CREATION_DATE  = 
ORIGINATOR     = 

OBJECT_NAME    = SL-14 R/B
OBJECT_ID      = 1986-055B
CENTER_NAME    = EARTH
REF_FRAME      = TEME
TIME_SYSTEM    = UTC
MEAN_ELEMENT_THEORY = SGP/SGP4

EPOCH          = 2026-03-23T13:26:24.256608
MEAN_MOTION    = 14.85654299
ECCENTRICITY   = .0017386
INCLINATION    = 82.5177
RA_OF_ASC_NODE = 113.6346
ARG_OF_PERICENTER = 287.7735
MEAN_ANOMALY   = 225.6487

EPHEMERIS_TYPE = 0
CLASSIFICATION_TYPE = U
NORAD_CAT_ID   = 16882
ELEMENT_SET_NO = 999
REV_AT_EPOCH   = 12142
BSTAR          = .4412E-4
MEAN_MOTION_DOT = .407E-5
MEAN_MOTION_DDOT = 0

CCSDS_OMM_VERS = 2.0
CREATION_DATE  = 
ORIGINATOR     = 

OBJECT_NAME    = AJISAI (EGS)
OBJECT_ID      = 1986-061A
CENTER_NAME    = EARTH
REF_FRAME      = TEME
TIME_SYSTEM    = UTC
MEAN_ELEMENT_THEORY = SGP/SGP4

EPOCH          = 2026-03-23T12:57:18.245664
MEAN_MOTION    = 12.44515664
ECCENTRICITY   = .0011316
INCLINATION    = 50.0100
RA_OF_ASC_NODE = 50.7568
ARG_OF_PERICENTER = 322.7298
MEAN_ANOMALY   = 158.1979

EPHEMERIS_TYPE = 0
CLASSIFICATION_TYPE = U
NORAD_CAT_ID   = 16908
ELEMENT_SET_NO = 999
REV_AT_EPOCH   = 46972
BSTAR          = -.69906E-4
MEAN_MOTION_DOT = -.107E-5
MEAN_MOTION_DDOT = 0

CCSDS_OMM_VERS = 2.0
CREATION_DATE  = 
ORIGINATOR     = 

OBJECT_NAME    = SL-14 R/B
OBJECT_ID      = 1987-024B
CENTER_NAME    = EARTH
REF_FRAME      = TEME
TIME_SYSTEM    = UTC
MEAN_ELEMENT_THEORY = SGP/SGP4

EPOCH          = 2026-03-23T10:35:36.146112
MEAN_MOTION    = 14.86144552
ECCENTRICITY   = .0017333
INCLINATION    = 82.5248
RA_OF_ASC_NODE = 79.8343
ARG_OF_PERICENTER = 210.9673
MEAN_ANOMALY   = 149.0523

EPHEMERIS_TYPE = 0
CLASSIFICATION_TYPE = U
NORAD_CAT_ID   = 17567
ELEMENT_SET_NO = 999
REV_AT_EPOCH   = 9017
BSTAR          = .51177E-4
MEAN_MOTION_DOT = .474E-5
MEAN_MOTION_DDOT = 0

CCSDS_OMM_VERS = 2.0
CREATION_DATE  = 
ORIGINATOR     = 

OBJECT_NAME    = COSMOS 1833
OBJECT_ID      = 1987-027A
CENTER_NAME    = EARTH
REF_FRAME      = TEME
TIME_SYSTEM    = UTC
MEAN_ELEMENT_THEORY = SGP/SGP4

EPOCH          = 2026-03-23T00:39:07.449120
MEAN_MOTION    = 14.13050200
ECCENTRICITY   = .00235683
INCLINATION    = 70.9186
RA_OF_ASC_NODE = 297.9865
ARG_OF_PERICENTER = 195.1710
MEAN_ANOMALY   = 164.8707

EPHEMERIS_TYPE = 0
CLASSIFICATION_TYPE = U
NORAD_CAT_ID   = 17589
ELEMENT_SET_NO = 999
REV_AT_EPOCH   = 1220
BSTAR          = -.11631786E-3
MEAN_MOTION_DOT = -.266E-5
MEAN_MOTION_DDOT = 0

CCSDS_OMM_VERS = 2.0
CREATION_DATE  = 
ORIGINATOR     = 

OBJECT_NAME    = SL-16 R/B
OBJECT_ID      = 1987-027B
CENTER_NAME    = EARTH
REF_FRAME      = TEME
TIME_SYSTEM    = UTC
MEAN_ELEMENT_THEORY = SGP/SGP4

EPOCH          = 2026-03-23T10:56:59.994816
MEAN_MOTION    = 14.17166019
ECCENTRICITY   = .0002954
INCLINATION    = 70.9994
RA_OF_ASC_NODE = 247.4826
ARG_OF_PERICENTER = 109.8217
MEAN_ANOMALY   = 250.3225

EPHEMERIS_TYPE = 0
CLASSIFICATION_TYPE = U
NORAD_CAT_ID   = 17590
ELEMENT_SET_NO = 999
REV_AT_EPOCH   = 1729
BSTAR          = -.75567E-4
MEAN_MOTION_DOT = -.2E-5
MEAN_MOTION_DDOT = 0

CCSDS_OMM_VERS = 2.0
CREATION_DATE  = 
ORIGINATOR     = 

OBJECT_NAME    = SL-14 R/B
OBJECT_ID      = 1987-038B
CENTER_NAME    = EARTH
REF_FRAME      = TEME
TIME_SYSTEM    = UTC
MEAN_ELEMENT_THEORY = SGP/SGP4

EPOCH          = 2026-03-23T12:15:32.610240
MEAN_MOTION    = 14.85380914
ECCENTRICITY   = .0020611
INCLINATION    = 82.4980
RA_OF_ASC_NODE = 283.7846
ARG_OF_PERICENTER = 116.9730
MEAN_ANOMALY   = 243.3594

EPHEMERIS_TYPE = 0
CLASSIFICATION_TYPE = U
NORAD_CAT_ID   = 17912
ELEMENT_SET_NO = 999
REV_AT_EPOCH   = 8128
BSTAR          = .47308E-4
MEAN_MOTION_DOT = .433E-5
MEAN_MOTION_DDOT = 0

CCSDS_OMM_VERS = 2.0
CREATION_DATE  = 
ORIGINATOR     = 

OBJECT_NAME    = COSMOS 1844
OBJECT_ID      = 1987-041A
CENTER_NAME    = EARTH
REF_FRAME      = TEME
TIME_SYSTEM    = UTC
MEAN_ELEMENT_THEORY = SGP/SGP4

EPOCH          = 2026-03-23T11:20:20.283936
MEAN_MOTION    = 14.14552855
ECCENTRICITY   = .0030716
INCLINATION    = 70.9012
RA_OF_ASC_NODE = 5.1048
ARG_OF_PERICENTER = 357.8242
MEAN_ANOMALY   = 2.2741

EPHEMERIS_TYPE = 0
CLASSIFICATION_TYPE = U
NORAD_CAT_ID   = 17973
ELEMENT_SET_NO = 999
REV_AT_EPOCH   = 553
BSTAR          = .14976E-3
MEAN_MOTION_DOT = .24E-5
MEAN_MOTION_DDOT = 0

CCSDS_OMM_VERS = 2.0
CREATION_DATE  = 
ORIGINATOR     = 

OBJECT_NAME    = SL-14 R/B
OBJECT_ID      = 1987-055B
CENTER_NAME    = EARTH
REF_FRAME      = TEME
TIME_SYSTEM    = UTC
MEAN_ELEMENT_THEORY = SGP/SGP4

EPOCH          = 2026-03-23T10:01:44.514912
MEAN_MOTION    = 14.85643213
ECCENTRICITY   = .0019922
INCLINATION    = 82.5017
RA_OF_ASC_NODE = 336.0957
ARG_OF_PERICENTER = 332.2110
MEAN_ANOMALY   = 27.8040

EPHEMERIS_TYPE = 0
CLASSIFICATION_TYPE = U
NORAD_CAT_ID   = 18153
ELEMENT_SET_NO = 999
REV_AT_EPOCH   = 7197
BSTAR          = .51703E-4
MEAN_MOTION_DOT = .473E-5
MEAN_MOTION_DDOT = 0

CCSDS_OMM_VERS = 2.0
CREATION_DATE  = 
ORIGINATOR     = 

OBJECT_NAME    = COSMOS 1867
OBJECT_ID      = 1987-060A
CENTER_NAME    = EARTH
REF_FRAME      = TEME
TIME_SYSTEM    = UTC
MEAN_ELEMENT_THEORY = SGP/SGP4

EPOCH          = 2026-03-23T04:53:44.439648
MEAN_MOTION    = 14.31505021
ECCENTRICITY   = .00146962
INCLINATION    = 65.0091
RA_OF_ASC_NODE = 268.8571
ARG_OF_PERICENTER = 279.4765
MEAN_ANOMALY   = 80.4658

EPHEMERIS_TYPE = 0
CLASSIFICATION_TYPE = U
NORAD_CAT_ID   = 18187
ELEMENT_SET_NO = 999
REV_AT_EPOCH   = 2187
BSTAR          = .25457425E-4
MEAN_MOTION_DOT = -.32E-6
MEAN_MOTION_DDOT = 0

CCSDS_OMM_VERS = 2.0
CREATION_DATE  = 
ORIGINATOR     = 

OBJECT_NAME    = SL-14 R/B
OBJECT_ID      = 1988-001B
CENTER_NAME    = EARTH
REF_FRAME      = TEME
TIME_SYSTEM    = UTC
MEAN_ELEMENT_THEORY = SGP/SGP4

EPOCH          = 2026-03-23T13:10:24.222144
MEAN_MOTION    = 14.85542769
ECCENTRICITY   = .0017872
INCLINATION    = 82.5163
RA_OF_ASC_NODE = 182.3291
ARG_OF_PERICENTER = 187.8398
MEAN_ANOMALY   = 172.2542

EPHEMERIS_TYPE = 0
CLASSIFICATION_TYPE = U
NORAD_CAT_ID   = 18749
ELEMENT_SET_NO = 999
REV_AT_EPOCH   = 4408
BSTAR          = .56694E-4
MEAN_MOTION_DOT = .515E-5
MEAN_MOTION_DDOT = 0

CCSDS_OMM_VERS = 2.0
CREATION_DATE  = 
ORIGINATOR     = 

OBJECT_NAME    = COSMOS 1933
OBJECT_ID      = 1988-020A
CENTER_NAME    = EARTH
REF_FRAME      = TEME
TIME_SYSTEM    = UTC
MEAN_ELEMENT_THEORY = SGP/SGP4

EPOCH          = 2026-03-23T08:51:06.422112
MEAN_MOTION    = 15.18108349
ECCENTRICITY   = .0004981
INCLINATION    = 82.5118
RA_OF_ASC_NODE = 237.3738
ARG_OF_PERICENTER = 139.7988
MEAN_ANOMALY   = 220.3615

EPHEMERIS_TYPE = 0
CLASSIFICATION_TYPE = U
NORAD_CAT_ID   = 18958
ELEMENT_SET_NO = 999
REV_AT_EPOCH   = 5230
BSTAR          = .27672E-3
MEAN_MOTION_DOT = .5674E-4
MEAN_MOTION_DDOT = 0

